{"version": 0.6, "generator": "Overpass API 0.7.59 e21c39fe", "osm3s": {"timestamp_osm_base": "2022-11-02T13:41:02Z", "copyright": "The data included in this document is from www.openstreetmap.org. The data is made available under ODbL."}, "elements": [{"type": "node", "id": 3514369108, "lat": 16.5331601, "lon": 106.014907, "tags": {"amenity": "bank", "name": "BCEL"}}, {"type": "node", "id": 4267999389, "lat": 16.5751481, "lon": 105.91347, "tags": {"amenity": "bank", "name": "Lao Development Bank. \u0e97\u0eb0\u0e99\u0eb2\u0e84\u0eb2\u0e99\u0e9e\u0eb1\u0e94\u0e97\u0eb0\u0e99\u0eb2\u0ea5\u0eb2\u0ea7"}}, {"type": "node", "id": 4406533293, "lat": 16.5328383, "lon": 106.0145319, "tags": {"amenity": "bank", "name:en": "BCEL"}}, {"type": "node", "id": 4406601690, "lat": 16.5346624, "lon": 106.026111, "tags": {"amenity": "bank"}}, {"type": "node", "id": 4406602090, "lat": 16.5316522, "lon": 106.0227151, "tags": {"amenity": "bank"}}, {"type": "node", "id": 4679748389, "lat": 16.6999383, "lon": 106.2111402, "tags": {"amenity": "bank", "name:en": "APB"}}, {"type": "node", "id": 8441955749, "lat": 16.7001383, "lon": 106.2104277, "tags": {"amenity": "bank", "name": "JDB"}}]}