{"version": 0.6, "generator": "Overpass API 0.7.59 e21c39fe", "osm3s": {"timestamp_osm_base": "2022-11-01T16:40:39Z", "copyright": "The data included in this document is from www.openstreetmap.org. The data is made available under ODbL."}, "elements": [{"type": "node", "id": 1448922675, "lat": 6.6397685, "lon": 3.3670853}, {"type": "node", "id": 1448922682, "lat": 6.6397659, "lon": 3.3672433}, {"type": "node", "id": 1448922694, "lat": 6.6395944, "lon": 3.3670824}, {"type": "node", "id": 1448922701, "lat": 6.6395918, "lon": 3.3672404}, {"type": "node", "id": 2197600001, "lat": 6.6063636, "lon": 3.3493146, "tags": {"amenity": "bank"}}, {"type": "node", "id": 5325724305, "lat": 6.5840442, "lon": 3.3575089}, {"type": "node", "id": 5325724306, "lat": 6.583958, "lon": 3.3575442}, {"type": "node", "id": 5325724307, "lat": 6.5839674, "lon": 3.3575675}, {"type": "node", "id": 5325724308, "lat": 6.5839493, "lon": 3.357575}, {"type": "node", "id": 5325724309, "lat": 6.5840148, "lon": 3.3577373}, {"type": "node", "id": 5325724310, "lat": 6.5841388, "lon": 3.3576865}, {"type": "node", "id": 5325724311, "lat": 6.584073, "lon": 3.3575237}, {"type": "node", "id": 5325724312, "lat": 6.5840534, "lon": 3.3575317}, {"type": "node", "id": 5325732939, "lat": 6.5849025, "lon": 3.3565907}, {"type": "node", "id": 5325732940, "lat": 6.5847602, "lon": 3.3566348}, {"type": "node", "id": 5325732941, "lat": 6.5847982, "lon": 3.3567588}, {"type": "node", "id": 5325732942, "lat": 6.5849404, "lon": 3.3567147}, {"type": "node", "id": 5325732943, "lat": 6.5846291, "lon": 3.3567178}, {"type": "node", "id": 5325732944, "lat": 6.5844442, "lon": 3.3567785}, {"type": "node", "id": 5325732945, "lat": 6.5844903, "lon": 3.3569211}, {"type": "node", "id": 5325732946, "lat": 6.5846753, "lon": 3.3568605}, {"type": "node", "id": 5902076618, "lat": 6.5970722, "lon": 3.3548843}, {"type": "node", "id": 5902076619, "lat": 6.5969043, "lon": 3.3547207}, {"type": "node", "id": 5902076620, "lat": 6.5968179, "lon": 3.3548105}, {"type": "node", "id": 5902076621, "lat": 6.5969858, "lon": 3.3549741}, {"type": "node", "id": 5906765945, "lat": 6.5982354, "lon": 3.354331}, {"type": "node", "id": 5906765946, "lat": 6.5982241, "lon": 3.3544256}, {"type": "node", "id": 5906765962, "lat": 6.5972003, "lon": 3.3539689}, {"type": "node", "id": 5906765963, "lat": 6.5970857, "lon": 3.354046}, {"type": "node", "id": 5906765964, "lat": 6.5971623, "lon": 3.3541614}, {"type": "node", "id": 5906765965, "lat": 6.5972769, "lon": 3.3540843}, {"type": "node", "id": 5912282913, "lat": 6.5987071, "lon": 3.3536504}, {"type": "node", "id": 5912282914, "lat": 6.5988317, "lon": 3.3538361}, {"type": "node", "id": 5912282915, "lat": 6.5989382, "lon": 3.3537637}, {"type": "node", "id": 5912282916, "lat": 6.5988136, "lon": 3.353578}, {"type": "node", "id": 5912282927, "lat": 6.598362, "lon": 3.3537738, "tags": {"access": "customers", "barrier": "gate"}}, {"type": "node", "id": 5912282931, "lat": 6.5983313, "lon": 3.3537925, "tags": {"access": "private", "barrier": "gate"}}, {"type": "node", "id": 5912282936, "lat": 6.5983127, "lon": 3.3538046}, {"type": "node", "id": 5912282937, "lat": 6.5983114, "lon": 3.3540098}, {"type": "node", "id": 5912282938, "lat": 6.5986271, "lon": 3.3544511}, {"type": "node", "id": 5912282939, "lat": 6.5988962, "lon": 3.3542767}, {"type": "node", "id": 5912282940, "lat": 6.5985099, "lon": 3.3536799}, {"type": "node", "id": 6124733445, "lat": 6.6401533, "lon": 3.3655018, "tags": {"amenity": "bank", "atm": "yes", "name": "GTBank", "opening_hours": "Mo-Fr 8:00-4:00"}}, {"type": "node", "id": 6124733446, "lat": 6.6402679, "lon": 3.3660623, "tags": {"amenity": "bank", "atm": "yes", "name": "Zenith Bank", "opening_hours": "Mo-Fr 08:00-04:00"}}, {"type": "node", "id": 6124733447, "lat": 6.6401507, "lon": 3.3677548, "tags": {"amenity": "bank", "atm": "yes", "name": "First Bank", "opening_hours": "Mo-Fr 08:00-04:00"}}, {"type": "node", "id": 6967294263, "lat": 6.5718285, "lon": 3.3663878, "tags": {"amenity": "bank", "name": "Wema Bank"}}, {"type": "node", "id": 6992566358, "lat": 6.613036, "lon": 3.3460822, "tags": {"amenity": "bank", "brand": "Zenith Bank", "brand:wikidata": "Q5978240", "brand:wikipedia": "en:Zenith Bank", "name": "Zenith Bank"}}, {"type": "node", "id": 6992566426, "lat": 6.6249309, "lon": 3.3424556, "tags": {"amenity": "bank", "name": "Union Bank"}}, {"type": "node", "id": 6992566427, "lat": 6.62441, "lon": 3.3429308, "tags": {"amenity": "bank", "brand": "UBA", "brand:wikidata": "Q513457", "brand:wikipedia": "en:United Bank for Africa", "name": "UBA"}}, {"type": "node", "id": 7419153015, "lat": 6.6265185, "lon": 3.3542836}, {"type": "node", "id": 7419153016, "lat": 6.6264578, "lon": 3.3542868}, {"type": "node", "id": 7419153017, "lat": 6.62647, "lon": 3.3545176}, {"type": "node", "id": 7419153018, "lat": 6.626673, "lon": 3.3545068}, {"type": "node", "id": 7419153019, "lat": 6.6266682, "lon": 3.3544146}, {"type": "node", "id": 7419153038, "lat": 6.6274387, "lon": 3.354113}, {"type": "node", "id": 7419153039, "lat": 6.6272259, "lon": 3.3540885}, {"type": "node", "id": 7419153040, "lat": 6.627214, "lon": 3.3541931}, {"type": "node", "id": 7419153041, "lat": 6.6274268, "lon": 3.3542176}, {"type": "node", "id": 7419153046, "lat": 6.6274509, "lon": 3.3536763}, {"type": "node", "id": 7419153047, "lat": 6.6273105, "lon": 3.3536529}, {"type": "node", "id": 7419153048, "lat": 6.6272884, "lon": 3.3537877}, {"type": "node", "id": 7419153049, "lat": 6.6274289, "lon": 3.3538111}, {"type": "node", "id": 7480505645, "lat": 6.6313954, "lon": 3.3402697, "tags": {"amenity": "bank", "brand": "Ecobank", "brand:wikidata": "Q930225", "brand:wikipedia": "en:Ecobank", "name": "Ecobank"}}, {"type": "node", "id": 9653831274, "lat": 6.59318, "lon": 3.3426914, "tags": {"addr:city": "Ikeja", "addr:street": "Kodesoh Street", "amenity": "bank", "atm": "yes", "name": "Polaris Bank Limited", "opening_hours": "Mo-Sa 08:00-18:00"}}, {"type": "way", "id": 131672297, "nodes": [1448922675, 1448922682, 1448922701, 1448922694, 1448922675], "tags": {"amenity": "bank", "building": "yes", "name": "Diamond Bank"}}, {"type": "way", "id": 551464850, "nodes": [5325724305, 5325724306, 5325724307, 5325724308, 5325724309, 5325724310, 5325724311, 5325724312, 5325724305], "tags": {"addr:city": "Ikeja", "addr:housenumber": "48", "addr:street": "Isaac John Street", "amenity": "bank", "building": "yes", "height": "14", "name": "First City Monument Bank"}}, {"type": "way", "id": 551464856, "nodes": [5325732939, 5325732940, 5325732941, 5325732942, 5325732939], "tags": {"amenity": "bank", "building": "yes", "height": "8", "name": "Standard Chartered"}}, {"type": "way", "id": 551464857, "nodes": [5325732943, 5325732944, 5325732945, 5325732946, 5325732943], "tags": {"amenity": "bank", "building": "yes", "height": "8", "name": "Skye Bank"}}, {"type": "way", "id": 625093259, "nodes": [5902076621, 5902076620, 5902076619, 5902076618, 5902076621], "tags": {"addr:city": "Ikeja", "addr:country": "NG", "addr:housenumber": "8", "addr:postcode": "100281", "addr:state": "Lagos", "addr:street": "Allen Avenue", "amenity": "bank", "building": "commercial", "building:levels": "3", "name": "Keystone Bank", "website": "https://www.keystonebankng.com/"}}, {"type": "way", "id": 625602955, "nodes": [5906765965, 5906765964, 5906765963, 5906765962, 5906765965], "tags": {"amenity": "bank", "brand": "UBA", "brand:wikidata": "Q513457", "building": "yes", "name": "UBA", "official_name": "United Bank for Africa"}}, {"type": "way", "id": 626246880, "nodes": [5912282916, 5912282915, 5912282914, 5912282913, 5912282916], "tags": {"addr:city": "Ikeja", "addr:country": "NG", "addr:housenumber": "26", "addr:postcode": "100281", "addr:state": "Lagos", "addr:street": "Allen Avenue", "amenity": "bank", "building": "yes", "building:levels": "4", "name": "ASHA"}}, {"type": "way", "id": 626246886, "nodes": [5912282940, 5912282939, 5912282938, 5906765946, 5906765945, 5912282937, 5912282936, 5912282931, 5912282927, 5912282940], "tags": {"addr:city": "Ikeja", "addr:country": "NG", "addr:housenumber": "20", "addr:postcode": "100281", "addr:state": "Lagos", "addr:street": "Allen Avenue", "amenity": "bank", "barrier": "fence", "brand": "Ecobank", "brand:wikidata": "Q930225", "landuse": "commercial", "name": "Ecobank", "phone": "+2347005000000"}}, {"type": "way", "id": 793453588, "nodes": [7419153015, 7419153016, 7419153017, 7419153018, 7419153019, 7419153015], "tags": {"addr:housenumber": "8/10", "addr:street": "Lateef Jakande Road", "amenity": "bank", "brand": "Zenith Bank", "brand:wikidata": "Q5978240", "brand:wikipedia": "en:Zenith Bank", "building": "yes", "contact:phone": "+234-0803-092-8066;+234-0706-511-0844;+234-0903-326-6809", "name": "Zenith Bank", "website": "https://www.zenithbank.com/"}}, {"type": "way", "id": 793453592, "nodes": [7419153038, 7419153039, 7419153040, 7419153041, 7419153038], "tags": {"amenity": "bank", "brand": "Standard Chartered", "brand:wikidata": "Q548278", "brand:wikipedia": "en:Standard Chartered", "building": "yes", "name": "Standard Chartered"}}, {"type": "way", "id": 793453594, "nodes": [7419153046, 7419153047, 7419153048, 7419153049, 7419153046], "tags": {"amenity": "bank", "building": "yes", "name": "First Bank"}}]}